CCSDS_OMM_VERS = 2.0
CREATION_DATE  = 
ORIGINATOR     = 

OBJECT_NAME    = STARLINK-36479
OBJECT_ID      = 2026-003U
CENTER_NAME    = EARTH
REF_FRAME      = TEME
TIME_SYSTEM    = UTC
MEAN_ELEMENT_THEORY = SGP/SGP4

EPOCH          = 2026-01-30T12:00:02.998944
MEAN_MOTION    = 15.59024131
ECCENTRICITY   = .0000963
INCLINATION    = 43.0002
RA_OF_ASC_NODE = 84.8878
ARG_OF_PERICENTER = 300.0533
MEAN_ANOMALY   = 238.8526

EPHEMERIS_TYPE = 0
CLASSIFICATION_TYPE = U
NORAD_CAT_ID   = 67352
ELEMENT_SET_NO = 999
REV_AT_EPOCH   = 453
BSTAR          = -.27824E-1
MEAN_MOTION_DOT = -.1959224E-1
MEAN_MOTION_DDOT = 0

CCSDS_OMM_VERS = 2.0
CREATION_DATE  = 
ORIGINATOR     = 

OBJECT_NAME    = STARLINK-36474
OBJECT_ID      = 2026-003V
CENTER_NAME    = EARTH
REF_FRAME      = TEME
TIME_SYSTEM    = UTC
MEAN_ELEMENT_THEORY = SGP/SGP4

EPOCH          = 2026-01-30T12:00:02.998944
MEAN_MOTION    = 15.59039320
ECCENTRICITY   = .0000887
INCLINATION    = 42.9997
RA_OF_ASC_NODE = 84.8836
ARG_OF_PERICENTER = 297.0208
MEAN_ANOMALY   = 243.7997

EPHEMERIS_TYPE = 0
CLASSIFICATION_TYPE = U
NORAD_CAT_ID   = 67353
ELEMENT_SET_NO = 999
REV_AT_EPOCH   = 453
BSTAR          = -.28343E-1
MEAN_MOTION_DOT = -.1992206E-1
MEAN_MOTION_DDOT = 0

CCSDS_OMM_VERS = 2.0
CREATION_DATE  = 
ORIGINATOR     = 

OBJECT_NAME    = STARLINK-36448
OBJECT_ID      = 2026-003W
CENTER_NAME    = EARTH
REF_FRAME      = TEME
TIME_SYSTEM    = UTC
MEAN_ELEMENT_THEORY = SGP/SGP4

EPOCH          = 2026-01-30T12:00:02.998944
MEAN_MOTION    = 15.59034552
ECCENTRICITY   = .000094
INCLINATION    = 43.0001
RA_OF_ASC_NODE = 84.8685
ARG_OF_PERICENTER = 289.3667
MEAN_ANOMALY   = 257.2075

EPHEMERIS_TYPE = 0
CLASSIFICATION_TYPE = U
NORAD_CAT_ID   = 67354
ELEMENT_SET_NO = 999
REV_AT_EPOCH   = 453
BSTAR          = -.28236E-1
MEAN_MOTION_DOT = -.1985306E-1
MEAN_MOTION_DDOT = 0

CCSDS_OMM_VERS = 2.0
CREATION_DATE  = 
ORIGINATOR     = 

OBJECT_NAME    = STARLINK-36477
OBJECT_ID      = 2026-003X
CENTER_NAME    = EARTH
REF_FRAME      = TEME
TIME_SYSTEM    = UTC
MEAN_ELEMENT_THEORY = SGP/SGP4

EPOCH          = 2026-01-30T12:00:02.998944
MEAN_MOTION    = 15.59029858
ECCENTRICITY   = .0000987
INCLINATION    = 42.9999
RA_OF_ASC_NODE = 84.8784
ARG_OF_PERICENTER = 294.3539
MEAN_ANOMALY   = 248.3853

EPHEMERIS_TYPE = 0
CLASSIFICATION_TYPE = U
NORAD_CAT_ID   = 67355
ELEMENT_SET_NO = 999
REV_AT_EPOCH   = 452
BSTAR          = -.28111E-1
MEAN_MOTION_DOT = -.1977297E-1
MEAN_MOTION_DDOT = 0

CCSDS_OMM_VERS = 2.0
CREATION_DATE  = 
ORIGINATOR     = 

OBJECT_NAME    = STARLINK-36429
OBJECT_ID      = 2026-003Y
CENTER_NAME    = EARTH
REF_FRAME      = TEME
TIME_SYSTEM    = UTC
MEAN_ELEMENT_THEORY = SGP/SGP4

EPOCH          = 2026-01-30T12:00:02.998944
MEAN_MOTION    = 15.59037963
ECCENTRICITY   = .0000969
INCLINATION    = 42.9999
RA_OF_ASC_NODE = 84.8734
ARG_OF_PERICENTER = 294.4258
MEAN_ANOMALY   = 250.2279

EPHEMERIS_TYPE = 0
CLASSIFICATION_TYPE = U
NORAD_CAT_ID   = 67356
ELEMENT_SET_NO = 999
REV_AT_EPOCH   = 452
BSTAR          = -.2831E-1
MEAN_MOTION_DOT = -.1990096E-1
MEAN_MOTION_DDOT = 0

CCSDS_OMM_VERS = 2.0
CREATION_DATE  = 
ORIGINATOR     = 

OBJECT_NAME    = STARLINK-36456
OBJECT_ID      = 2026-003Z
CENTER_NAME    = EARTH
REF_FRAME      = TEME
TIME_SYSTEM    = UTC
MEAN_ELEMENT_THEORY = SGP/SGP4

EPOCH          = 2026-01-30T12:00:02.998944
MEAN_MOTION    = 15.59027921
ECCENTRICITY   = .0000911
INCLINATION    = 43.0001
RA_OF_ASC_NODE = 84.8632
ARG_OF_PERICENTER = 293.8756
MEAN_ANOMALY   = 254.6163

EPHEMERIS_TYPE = 0
CLASSIFICATION_TYPE = U
NORAD_CAT_ID   = 67357
ELEMENT_SET_NO = 999
REV_AT_EPOCH   = 453
BSTAR          = -.28078E-1
MEAN_MOTION_DOT = -.1975089E-1
MEAN_MOTION_DDOT = 0

CCSDS_OMM_VERS = 2.0
CREATION_DATE  = 
ORIGINATOR     = 

OBJECT_NAME    = STARLINK-36466
OBJECT_ID      = 2026-003AA
CENTER_NAME    = EARTH
REF_FRAME      = TEME
TIME_SYSTEM    = UTC
MEAN_ELEMENT_THEORY = SGP/SGP4

EPOCH          = 2026-01-30T12:00:02.998944
MEAN_MOTION    = 15.59032941
ECCENTRICITY   = .0000903
INCLINATION    = 42.9999
RA_OF_ASC_NODE = 84.8586
ARG_OF_PERICENTER = 294.1955
MEAN_ANOMALY   = 256.2131

EPHEMERIS_TYPE = 0
CLASSIFICATION_TYPE = U
NORAD_CAT_ID   = 67358
ELEMENT_SET_NO = 999
REV_AT_EPOCH   = 453
BSTAR          = -.28216E-1
MEAN_MOTION_DOT = -.1983929E-1
MEAN_MOTION_DDOT = 0

CCSDS_OMM_VERS = 2.0
CREATION_DATE  = 
ORIGINATOR     = 

OBJECT_NAME    = STARLINK-36499
OBJECT_ID      = 2026-003AB
CENTER_NAME    = EARTH
REF_FRAME      = TEME
TIME_SYSTEM    = UTC
MEAN_ELEMENT_THEORY = SGP/SGP4

EPOCH          = 2026-01-30T12:00:02.998944
MEAN_MOTION    = 15.59035784
ECCENTRICITY   = .0000749
INCLINATION    = 43.0002
RA_OF_ASC_NODE = 84.8536
ARG_OF_PERICENTER = 297.2258
MEAN_ANOMALY   = 255.0980

EPHEMERIS_TYPE = 0
CLASSIFICATION_TYPE = U
NORAD_CAT_ID   = 67359
ELEMENT_SET_NO = 999
REV_AT_EPOCH   = 453
BSTAR          = -.28266E-1
MEAN_MOTION_DOT = -.1987119E-1
MEAN_MOTION_DDOT = 0

CCSDS_OMM_VERS = 2.0
CREATION_DATE  = 
ORIGINATOR     = 

OBJECT_NAME    = STARLINK-36469
OBJECT_ID      = 2026-003AC
CENTER_NAME    = EARTH
REF_FRAME      = TEME
TIME_SYSTEM    = UTC
MEAN_ELEMENT_THEORY = SGP/SGP4

EPOCH          = 2026-01-30T12:00:02.998944
MEAN_MOTION    = 15.59033832
ECCENTRICITY   = .0000833
INCLINATION    = 42.9999
RA_OF_ASC_NODE = 84.8487
ARG_OF_PERICENTER = 293.0050
MEAN_ANOMALY   = 261.2366

EPHEMERIS_TYPE = 0
CLASSIFICATION_TYPE = U
NORAD_CAT_ID   = 67360
ELEMENT_SET_NO = 999
REV_AT_EPOCH   = 453
BSTAR          = -.28222E-1
MEAN_MOTION_DOT = -.1984353E-1
MEAN_MOTION_DDOT = 0

CCSDS_OMM_VERS = 2.0
CREATION_DATE  = 
ORIGINATOR     = 

OBJECT_NAME    = STARLINK-35306
OBJECT_ID      = 2026-003AD
CENTER_NAME    = EARTH
REF_FRAME      = TEME
TIME_SYSTEM    = UTC
MEAN_ELEMENT_THEORY = SGP/SGP4

EPOCH          = 2026-01-30T12:00:02.998944
MEAN_MOTION    = 15.59031552
ECCENTRICITY   = .0000972
INCLINATION    = 43.0000
RA_OF_ASC_NODE = 84.8429
ARG_OF_PERICENTER = 289.2948
MEAN_ANOMALY   = 266.8674

EPHEMERIS_TYPE = 0
CLASSIFICATION_TYPE = U
NORAD_CAT_ID   = 67361
ELEMENT_SET_NO = 999
REV_AT_EPOCH   = 447
BSTAR          = -.28171E-1
MEAN_MOTION_DOT = -.1981139E-1
MEAN_MOTION_DDOT = 0

CCSDS_OMM_VERS = 2.0
CREATION_DATE  = 
ORIGINATOR     = 

OBJECT_NAME    = STARLINK-36428
OBJECT_ID      = 2026-003AE
CENTER_NAME    = EARTH
REF_FRAME      = TEME
TIME_SYSTEM    = UTC
MEAN_ELEMENT_THEORY = SGP/SGP4

EPOCH          = 2026-01-30T12:00:02.998944
MEAN_MOTION    = 15.59030171
ECCENTRICITY   = .0000818
INCLINATION    = 43.0001
RA_OF_ASC_NODE = 84.8378
ARG_OF_PERICENTER = 292.6291
MEAN_ANOMALY   = 265.4491

EPHEMERIS_TYPE = 0
CLASSIFICATION_TYPE = U
NORAD_CAT_ID   = 67362
ELEMENT_SET_NO = 999
REV_AT_EPOCH   = 453
BSTAR          = -.28139E-1
MEAN_MOTION_DOT = -.197893E-1
MEAN_MOTION_DDOT = 0

CCSDS_OMM_VERS = 2.0
CREATION_DATE  = 
ORIGINATOR     = 

OBJECT_NAME    = TWILIGHT A
OBJECT_ID      = 2026-004A
CENTER_NAME    = EARTH
REF_FRAME      = TEME
TIME_SYSTEM    = UTC
MEAN_ELEMENT_THEORY = SGP/SGP4

EPOCH          = 2026-01-30T12:33:51.835968
MEAN_MOTION    = 14.86975330
ECCENTRICITY   = .0007683
INCLINATION    = 97.7986
RA_OF_ASC_NODE = 31.3486
ARG_OF_PERICENTER = 226.5088
MEAN_ANOMALY   = 133.5490

EPHEMERIS_TYPE = 0
CLASSIFICATION_TYPE = U
NORAD_CAT_ID   = 67363
ELEMENT_SET_NO = 999
REV_AT_EPOCH   = 281
BSTAR          = .79309E-3
MEAN_MOTION_DOT = .7052E-4
MEAN_MOTION_DDOT = 0

