STARLINK-36479          
1 67352U 26003U   26030.50003471 -.01959224  00000+0 -27824-1 0  9992
2 67352  43.0002  84.8878 0000963 300.0533 238.8526 15.59024131  4536
STARLINK-36474          
1 67353U 26003V   26030.50003471 -.01992206  00000+0 -28343-1 0  9997
2 67353  42.9997  84.8836 0000887 297.0208 243.7997 15.59039320  4534
STARLINK-36448          
1 67354U 26003W   26030.50003471 -.01985306  00000+0 -28236-1 0  9992
2 67354  43.0001  84.8685 0000940 289.3667 257.2075 15.59034552  4537
STARLINK-36477          
1 67355U 26003X   26030.50003471 -.01977297  00000+0 -28111-1 0  9995
2 67355  42.9999  84.8784 0000987 294.3539 248.3853 15.59029858  4524
STARLINK-36429          
1 67356U 26003Y   26030.50003471 -.01990096  00000+0 -28310-1 0  9999
2 67356  42.9999  84.8734 0000969 294.4258 250.2279 15.59037963  4529
STARLINK-36456          
1 67357U 26003Z   26030.50003471 -.01975089  00000+0 -28078-1 0  9996
2 67357  43.0001  84.8632 0000911 293.8756 254.6163 15.59027921  4530
STARLINK-36466          
1 67358U 26003AA  26030.50003471 -.01983929  00000+0 -28216-1 0  9993
2 67358  42.9999  84.8586 0000903 294.1955 256.2131 15.59032941  4530
STARLINK-36499          
1 67359U 26003AB  26030.50003471 -.01987119  00000+0 -28266-1 0  9994
2 67359  43.0002  84.8536 0000749 297.2258 255.0980 15.59035784  4538
STARLINK-36469          
1 67360U 26003AC  26030.50003471 -.01984353  00000+0 -28222-1 0  9995
2 67360  42.9999  84.8487 0000833 293.0050 261.2366 15.59033832  4535
STARLINK-35306          
1 67361U 26003AD  26030.50003471 -.01981139  00000+0 -28171-1 0  9998
2 67361  43.0000  84.8429 0000972 289.2948 266.8674 15.59031552  4477
STARLINK-36428          
1 67362U 26003AE  26030.50003471 -.01978930  00000+0 -28139-1 0  9998
2 67362  43.0001  84.8378 0000818 292.6291 265.4491 15.59030171  4535
TWILIGHT A              
1 67363U 26004A   26030.52351662  .00007052  00000+0  79309-3 0  9992
2 67363  97.7986  31.3486 0007683 226.5088 133.5490 14.86975330  2815
